STARLINK-5381           
1 54828U 22177J   23199.41454578  .00001492  00000+0  12551-3 0  9990
2 54828  43.0055 338.3011 0001641 268.1179  91.9475 15.02538782 30774
STARLINK-5380           
1 54829U 22177K   23199.76469334  .00001039  00000+0  91986-4 0  9992
2 54829  43.0051 336.6327 0001411 278.5871  81.4812 15.02544424 30826
STARLINK-5394           
1 54830U 22177L   23199.40899815  .00000821  00000+0  75801-4 0  9992
2 54830  43.0037 338.2567 0001380 257.1255 102.9433 15.02539558 30774
STARLINK-5395           
1 54831U 22177M   23198.82180065  .00002472  00000+0  19799-3 0  9995
2 54831  43.0032 341.5954 0001241 279.7513  80.3190 15.02541258 30689
STARLINK-5393           
1 54832U 22177N   23199.71734486  .00000344  00000+0  40546-4 0  9998
2 54832  43.0042 324.1372 0001022 264.3111  95.7615 15.02538212 30962
STARLINK-5391           
1 54833U 22177P   23199.74361745 -.00000502  00000+0 -22108-4 0  9998
2 54833  43.0056 336.4737 0001665 284.9939  75.0719 15.02530231 30822
STARLINK-5386           
1 54834U 22177Q   23199.73916414  .00001505  00000+0  12646-3 0  9994
2 54834  43.0058 336.4379 0002088 257.1842 102.8767 15.02540050 30824
STARLINK-5389           
1 54835U 22177R   23199.41232934  .00000549  00000+0  55706-4 0  9990
2 54835  43.0035 338.2821 0001055 253.2480 106.8247 15.02536880 30777
STARLINK-5384           
1 54836U 22177S   23199.73584059  .00006551  00000+0  49978-3 0  9996
2 54836  43.0057 336.4128 0001738 258.1742 101.8905 15.02518919 30820
STARLINK-5369           
1 54837U 22177T   23199.27271335  .00001777  00000+0  14660-3 0  9991
2 54837  43.0049 338.9591 0001560 269.2783  90.7881 15.02539549 30757
STARLINK-5372           
1 54838U 22177U   23199.46327099  .00001118  00000+0  97818-4 0  9998
2 54838  43.0059 337.8069 0001653 270.1743  89.8910 15.02532156 30789
STARLINK-5110           
1 54839U 22177V   23199.45771780  .00001460  00000+0  12315-3 0  9996
2 54839  43.0058 337.7666 0001593 270.9041  89.1618 15.02534905 30785
STARLINK-5368           
1 54840U 22177W   23199.45549990  .00001272  00000+0  10923-3 0  9998
2 54840  43.0051 337.7508 0001415 272.5026  87.5654 15.02536683 30786
STARLINK-4659           
1 54841U 22177X   23199.46659541  .00001771  00000+0  14610-3 0  9995
2 54841  43.0055 337.8329 0001688 269.5762  90.4887 15.02539984 30786
STARLINK-5387           
1 54842U 22177Y   23199.71474560  .00001322  00000+0  11294-3 0  9997
2 54842  43.0050 336.2566 0001546 268.6288  91.4377 15.02542252 30826
STARLINK-5304           
1 54843U 22177Z   23199.46104842  .00000959  00000+0  86095-4 0  9990
2 54843  43.0059 337.7920 0001852 268.9488  91.1142 15.02535148 30789
STARLINK-5388           
1 54844U 22177AA  23199.37681235  .00001413  00000+0  11962-3 0  9993
2 54844  43.0042 338.0000 0001356 275.9766  84.0922 15.02540834 30775
STARLINK-5082           
1 54845U 22177AB  23199.71808077  .00000574  00000+0  57587-4 0  9998
2 54845  43.0037 336.2788 0001059 286.3131  73.7595 15.02539583 30821
STARLINK-5360           
1 54846U 22177AC  23198.44945233  .00000729  00000+0  69027-4 0  9998
2 54846  43.0049 343.1032 0001647 273.8252  86.2402 15.02539973 30630
STARLINK-5061           
1 54847U 22177AD  23199.67209740  .00000006  00000+0  15547-4 0  9997
2 54847  43.0034 310.7824 0001152 282.0546  78.0167 15.02535557 31118
STARLINK-5432           
1 54848U 22177AE  23199.71179172  .00000678  00000+0  65291-4 0  9994
2 54848  43.0056 324.0825 0001621 268.2338  91.8318 15.02536548 30962
STARLINK-5434           
1 54849U 22177AF  23199.77456829  .00000339  00000+0  40168-4 0  9998
2 54849  43.0052 335.8382 0001508 271.7160  88.3509 15.02535285 30839
STARLINK-5087           
1 54850U 22177AG  23198.44316703  .00000898  00000+0  81529-4 0  9995
2 54850  43.0052 330.9041 0001264 274.8821  85.1877 15.02535488 30777
STARLINK-5084           
1 54851U 22177AH  23199.24422888  .00001103  00000+0  96732-4 0  9999
2 54851  43.0051 326.5915 0001485 265.8567  94.2106 15.02538401 30897
STARLINK-5418           
1 54852U 22177AJ  23199.70069459  .00002213  00000+0  17878-3 0  9998
2 54852  43.0040 323.9994 0001256 278.6857  81.3843 15.02544455 30963
STARLINK-5427           
1 54853U 22177AK  23199.43811183  .00001790  00000+0  14755-3 0  9998
2 54853  43.0052 325.4673 0001383 271.3030  88.7654 15.02539430 30926
STARLINK-5419           
1 54854U 22177AL  23199.76161963  .00001244  00000+0  10712-3 0  9992
2 54854  43.0050 323.5953 0001754 270.6492  89.4150 15.02541213 30977
STARLINK-5416           
1 54855U 22177AM  23199.76385308  .00013147  00000+0  98771-3 0  9990
2 54855  43.0051 323.6113 0001376 260.2736  99.7951 15.02488241 30978
STARLINK-5086           
1 54856U 22177AN  23199.47795430  .00000738  00000+0  69727-4 0  9992
2 54856  43.0048 324.9070 0001263 270.0721  89.9977 15.02538736 30939
STARLINK-5078           
1 54857U 22177AP  23199.36941571  .00001757  00000+0  14509-3 0  9999
2 54857  43.0050 325.8114 0001446 270.7309  89.3368 15.02540434 30918
STARLINK-5407           
1 54858U 22177AQ  23199.42368441  .00000897  00000+0  81493-4 0  9997
2 54858  43.0050 325.3610 0001699 272.7095  87.3553 15.02538812 30921
STARLINK-5409           
1 54859U 22177AR  23199.41480404  .00001369  00000+0  11643-3 0  9995
2 54859  43.0053 325.2937 0001492 267.9698  92.0973 15.02537656 30926
STARLINK-5406           
1 54860U 22177AS  23199.74164533  .00000856  00000+0  78396-4 0  9994
2 54860  43.0040 323.4477 0001070 281.9231  78.1492 15.02535874 30970
STARLINK-5400           
1 54861U 22177AT  23199.75829134  .00000726  00000+0  68807-4 0  9993
2 54861  43.0046 323.5709 0001636 272.5964  87.4691 15.02538671 30975
STARLINK-5403           
1 54862U 22177AU  23199.71512431  .00001111  00000+0  97299-4 0  9995
2 54862  43.0060 324.1191 0001297 268.4867  91.5827 15.02541233 30967
STARLINK-5405           
1 54863U 22177AV  23199.41702464 -.00000068  00000+0  10019-4 0  9996
2 54863  43.0053 325.3105 0001497 267.6321  92.4350 15.02539504 30921
STARLINK-5359           
1 54864U 22177AW  23199.73831464  .00003928  00000+0  30562-3 0  9996
2 54864  43.0050 323.4199 0001603 279.8381  80.2280 15.02545705 30849
STARLINK-5411           
1 54865U 22177AX  23199.68626786 -.00000359  00000+0 -11477-4 0  9992
2 54865  43.0041 323.8917 0001115 276.3726  83.6989 15.02537026 30845
STARLINK-5398           
1 54866U 22177AY  23199.39704995  .00000711  00000+0  67716-4 0  9997
2 54866  43.0050 325.1608 0001564 283.9920  76.0749 15.02533261 30922
STARLINK-5396           
1 54867U 22177AZ  23199.40815928 -.00001186  00000+0 -72759-4 0  9991
2 54867  43.0048 325.2453 0001458 270.1633  89.9043 15.02519400 30806
STARLINK-5379           
1 54868U 22177BA  23199.39149775 -.00001044  00000+0 -62224-4 0  9999
2 54868  43.0048 325.1185 0001519 275.4017  84.6652 15.02544020 30792
STARLINK-5402           
1 54869U 22177BB  23199.40037710  .00000100  00000+0  22496-4 0  9994
2 54869  43.0055 325.1874 0001377 263.7959  96.2726 15.02536075 30795
STARLINK-5401           
1 54870U 22177BC  23199.72609900  .00002393  00000+0  19217-3 0  9999
2 54870  43.0058 323.3300 0001962 288.3709  71.6920 15.02541661 30857
STARLINK-5397           
1 54871U 22177BD  23199.40260144  .00000195  00000+0  29491-4 0  9992
2 54871  43.0038 325.2030 0001069 267.1145  92.9575 15.02530808 30802
STARLINK-5390           
1 54872U 22177BE  23198.65469850  .00000771  00000+0  72145-4 0  9998
2 54872  43.0056 329.0728 0001606 276.2972  83.7687 15.02533697 30682
STARLINK-5091           
1 54873U 22177BF  23199.18873702  .00000542  00000+0  55170-4 0  9998
2 54873  43.0058 326.1798 0001395 297.1685  62.9015 15.02532781 30898
STARLINK-5277           
1 55269U 23010A   23199.47247128  .00000328  00000+0  35308-4 0  9997
2 55269  70.0013 318.1961 0003215 270.2700  89.8091 14.98327070 27890
STARLINK-5301           
1 55270U 23010B   23199.48498898  .00001103  00000+0  10022-3 0  9999
2 55270  70.0009 318.2400 0003281 268.0828  91.9956 14.98332442 27898
STARLINK-5306           
1 55271U 23010C   23199.74367763  .00001274  00000+0  11453-3 0  9993
2 55271  70.0012 317.5369 0003188 269.9348  90.1445 14.98335572 27938
STARLINK-5310           
1 55272U 23010D   23199.75619677  .00000986  00000+0  90404-4 0  9992
2 55272  70.0013 317.5827 0003279 269.4825  90.5959 14.98339668 27939
STARLINK-5291           
1 55273U 23010E   23199.46829490  .00000423  00000+0  43235-4 0  9993
2 55273  70.0010 318.1800 0003040 264.7326  95.3486 14.98329364 27890
STARLINK-5236           
1 55274U 23010F   23199.66417497  .00000576  00000+0  56061-4 0  9996
2 55274  70.0000 297.7903 0003197 270.4767  89.6026 14.98331220 28400
STARLINK-5260           
1 55275U 23010G   23199.45972306 -.00000082  00000+0  88215-6 0  9990
2 55275  69.9999 298.2792 0003192 257.3424 102.7378 14.98323694 28375
STARLINK-5261           
1 55276U 23010H   23199.45555059 -.00000334  00000+0 -20168-4 0  9995
2 55276  69.9992 298.2630 0002973 264.2488  95.8332 14.98330235 28385
STARLINK-5299           
1 55277U 23010J   23199.46412332  .00000047  00000+0  11761-4 0  9991
2 55277  70.0011 318.1645 0003256 272.3475  87.7311 14.98324497 27895
STARLINK-5289           
1 55278U 23010K   23199.71446254  .00000854  00000+0  79330-4 0  9992
2 55278  70.0010 317.4340 0003285 269.6709  90.4074 14.98330114 27935
STARLINK-5323           
1 55279U 23010L   23199.59346822  .00000369  00000+0  38745-4 0  9995
2 55279  70.0009 317.8144 0003389 270.5914  89.4857 14.98327672 27903
STARLINK-5331           
1 55280U 23010M   23199.44325169 -.00000057  00000+0  30517-5 0  9997
2 55280  70.0022 318.0918 0002911 268.7941  91.2885 14.98329482 27881
STARLINK-5298           
1 55281U 23010N   23199.45577264  .00000297  00000+0  32656-4 0  9994
2 55281  70.0010 318.1356 0003204 271.4220  88.6572 14.98327153 27890
